{"type": "FeatureCollection", "features": [ {"type": "Feature", "properties": {"norad_id": 35060, "name": "COSMOS 2251 DEB", "group": "cosmos-2251-debris", "lat": -39.638735363378295, "lon": 50.827470303643665, "alt_km": 756.4905686222182, "timestamp": "2025-12-27T10:28:59.190080+00:00", "meta": {"OBJECT_NAME": "COSMOS 2251 DEB", "OBJECT_ID": "1993-036AHP", "EPOCH": "2025-12-23T23:50:58.864704", "MEAN_MOTION": 14.416228, "ECCENTRICITY": 0.00187381, "INCLINATION": 74.0364, "RA_OF_ASC_NODE": 223.4863, "ARG_OF_PERICENTER": 306.8479, "MEAN_ANOMALY": 53.0958, "EPHEMERIS_TYPE": 0, "CLASSIFICATION_TYPE": "U", "NORAD_CAT_ID": 35060, "ELEMENT_SET_NO": 999, "REV_AT_EPOCH": 87404, "BSTAR": 0.0002601881, "MEAN_MOTION_DOT": 8.22e-06, "MEAN_MOTION_DDOT": 0}, "tle": {"line1": "1 35060U 93036AHP 25357.99373686  .00000822  00000+0  26019-3 0  9990", "line2": "2 35060  74.0364 223.4863 0018738 306.8479  53.0958 14.41622800874043"}}, "geometry": {"type": "Point", "coordinates": [50.827470303643665, -39.638735363378295]}}, {"type": "Feature", "properties": {"norad_id": 35061, "name": "COSMOS 2251 DEB", "group": "cosmos-2251-debris", "lat": 51.71277457046033, "lon": -61.41285865898392, "alt_km": 638.252626765563, "timestamp": "2025-12-27T10:28:59.190090+00:00", "meta": {"OBJECT_NAME": "COSMOS 2251 DEB", "OBJECT_ID": "1993-036AHQ", "EPOCH": "2025-12-27T03:41:39.156288", "MEAN_MOTION": 14.67952318, "ECCENTRICITY": 0.0039843, "INCLINATION": 74.046, "RA_OF_ASC_NODE": 277.8862, "ARG_OF_PERICENTER": 24.8529, "MEAN_ANOMALY": 335.4548, "EPHEMERIS_TYPE": 0, "CLASSIFICATION_TYPE": "U", "NORAD_CAT_ID": 35061, "ELEMENT_SET_NO": 999, "REV_AT_EPOCH": 88786, "BSTAR": 0.00093118, "MEAN_MOTION_DOT": 5.368e-05, "MEAN_MOTION_DDOT": 0}, "tle": {"line1": "1 35061U 93036AHQ 25361.15392542  .00005368  00000+0  93118-3 0  9990", "line2": "2 35061  74.0460 277.8862 0039843  24.8529 335.4548 14.67952318887860"}}, "geometry": {"type": "Point", "coordinates": [-61.41285865898392, 51.71277457046033]}}, {"type": "Feature", "properties": {"norad_id": 35062, "name": "COSMOS 2251 DEB", "group": "cosmos-2251-debris", "lat": -69.7329316767095, "lon": -62.48249144968093, "alt_km": 909.2696812911981, "timestamp": "2025-12-27T10:28:59.190101+00:00", "meta": {"OBJECT_NAME": "COSMOS 2251 DEB", "OBJECT_ID": "1993-036AHR", "EPOCH": "2025-12-27T04:13:13.662912", "MEAN_MOTION": 14.23044847, "ECCENTRICITY": 0.0125835, "INCLINATION": 74.0787, "RA_OF_ASC_NODE": 67.3599, "ARG_OF_PERICENTER": 62.5897, "MEAN_ANOMALY": 298.7984, "EPHEMERIS_TYPE": 0, "CLASSIFICATION_TYPE": "U", "NORAD_CAT_ID": 35062, "ELEMENT_SET_NO": 999, "REV_AT_EPOCH": 85704, "BSTAR": 0.0017191, "MEAN_MOTION_DOT": 4.182e-05, "MEAN_MOTION_DDOT": 0}, "tle": {"line1": "1 35062U 93036AHR 25361.17585258  .00004182  00000+0  17191-2 0  9990", "line2": "2 35062  74.0787  67.3599 0125835  62.5897 298.7984 14.23044847857049"}}, "geometry": {"type": "Point", "coordinates": [-62.48249144968093, -69.7329316767095]}}, {"type": "Feature", "properties": {"norad_id": 35065, "name": "COSMOS 2251 DEB", "group": "cosmos-2251-debris", "lat": 62.91347587399408, "lon": -159.01856735046456, "alt_km": 743.792721398353, "timestamp": "2025-12-27T10:28:59.190111+00:00", "meta": {"OBJECT_NAME": "COSMOS 2251 DEB", "OBJECT_ID": "1993-036AHU", "EPOCH": "2025-12-26T10:55:13.836864", "MEAN_MOTION": 14.45764248, "ECCENTRICITY": 0.0020358, "INCLINATION": 74.0178, "RA_OF_ASC_NODE": 168.7315, "ARG_OF_PERICENTER": 291.8587, "MEAN_ANOMALY": 68.0405, "EPHEMERIS_TYPE": 0, "CLASSIFICATION_TYPE": "U", "NORAD_CAT_ID": 35065, "ELEMENT_SET_NO": 999, "REV_AT_EPOCH": 68549, "BSTAR": 0.00042895, "MEAN_MOTION_DOT": 1.498e-05, "MEAN_MOTION_DDOT": 0}, "tle": {"line1": "1 35065U 93036AHU 25360.45502126  .00001498  00000+0  42895-3 0  9993", "line2": "2 35065  74.0178 168.7315 0020358 291.8587  68.0405 14.45764248685497"}}, "geometry": {"type": "Point", "coordinates": [-159.01856735046456, 62.91347587399408]}}, {"type": "Feature", "properties": {"norad_id": 35071, "name": "COSMOS 2251 DEB", "group": "cosmos-2251-debris", "lat": 67.47550222685084, "lon": -80.81628415925633, "alt_km": 532.4872014805223, "timestamp": "2025-12-27T10:28:59.190121+00:00", "meta": {"OBJECT_NAME": "COSMOS 2251 DEB", "OBJECT_ID": "1993-036AJA", "EPOCH": "2025-12-27T02:02:07.791360", "MEAN_MOTION": 15.0373425, "ECCENTRICITY": 0.0068536, "INCLINATION": 73.9327, "RA_OF_ASC_NODE": 143.9325, "ARG_OF_PERICENTER": 36.008, "MEAN_ANOMALY": 324.5696, "EPHEMERIS_TYPE": 0, "CLASSIFICATION_TYPE": "U", "NORAD_CAT_ID": 35071, "ELEMENT_SET_NO": 999, "REV_AT_EPOCH": 67752, "BSTAR": 0.0009004, "MEAN_MOTION_DOT": 0.00012992, "MEAN_MOTION_DDOT": 0}, "tle": {"line1": "1 35071U 93036AJA 25361.08481240  .00012992  00000+0  90040-3 0  9999", "line2": "2 35071  73.9327 143.9325 0068536  36.0080 324.5696 15.03734250677523"}}, "geometry": {"type": "Point", "coordinates": [-80.81628415925633, 67.47550222685084]}}, {"type": "Feature", "properties": {"norad_id": 35073, "name": "COSMOS 2251 DEB", "group": "cosmos-2251-debris", "lat": 72.80501669731561, "lon": 8.593638561653508, "alt_km": 548.085783432688, "timestamp": "2025-12-27T10:28:59.190131+00:00", "meta": {"OBJECT_NAME": "COSMOS 2251 DEB", "OBJECT_ID": "1993-036AJC", "EPOCH": "2025-12-26T13:19:39.449280", "MEAN_MOTION": 15.01663707, "ECCENTRICITY": 0.0011423, "INCLINATION": 74.0005, "RA_OF_ASC_NODE": 302.3878, "ARG_OF_PERICENTER": 45.8819, "MEAN_ANOMALY": 314.3306, "EPHEMERIS_TYPE": 0, "CLASSIFICATION_TYPE": "U", "NORAD_CAT_ID": 35073, "ELEMENT_SET_NO": 999, "REV_AT_EPOCH": 67686, "BSTAR": 0.0034127, "MEAN_MOTION_DOT": 0.00044647, "MEAN_MOTION_DDOT": 0}, "tle": {"line1": "1 35073U 93036AJC 25360.55531770  .00044647  00000+0  34127-2 0  9991", "line2": "2 35073  74.0005 302.3878 0011423  45.8819 314.3306 15.01663707676862"}}, "geometry": {"type": "Point", "coordinates": [8.593638561653508, 72.80501669731561]}}, {"type": "Feature", "properties": {"norad_id": 35284, "name": "COSMOS 2251 DEB", "group": "cosmos-2251-debris", "lat": 74.03702107527734, "lon": -33.37745223469093, "alt_km": 765.7276036903249, "timestamp": "2025-12-27T10:28:59.190141+00:00", "meta": {"OBJECT_NAME": "COSMOS 2251 DEB", "OBJECT_ID": "1993-036AJN", "EPOCH": "2025-12-26T15:50:56.704128", "MEAN_MOTION": 14.38332344, "ECCENTRICITY": 0.0017235, "INCLINATION": 74.0481, "RA_OF_ASC_NODE": 238.7931, "ARG_OF_PERICENTER": 313.4165, "MEAN_ANOMALY": 77.5805, "EPHEMERIS_TYPE": 0, "CLASSIFICATION_TYPE": "U", "NORAD_CAT_ID": 35284, "ELEMENT_SET_NO": 999, "REV_AT_EPOCH": 65726, "BSTAR": 0.00015481, "MEAN_MOTION_DOT": 4.46e-06, "MEAN_MOTION_DDOT": 0}, "tle": {"line1": "1 35284U 93036AJN 25360.66037852  .00000446  00000+0  15481-3 0  9991", "line2": "2 35284  74.0481 238.7931 0017235 313.4165  77.5805 14.38332344657265"}}, "geometry": {"type": "Point", "coordinates": [-33.37745223469093, 74.03702107527734]}}, {"type": "Feature", "properties": {"norad_id": 35287, "name": "COSMOS 2251 DEB", "group": "cosmos-2251-debris", "lat": 16.576799998413872, "lon": 64.2402474136337, "alt_km": 783.66614187303, "timestamp": "2025-12-27T10:28:59.190151+00:00", "meta": {"OBJECT_NAME": "COSMOS 2251 DEB", "OBJECT_ID": "1993-036AJR", "EPOCH": "2025-12-26T11:11:15.829152", "MEAN_MOTION": 14.36387455, "ECCENTRICITY": 0.0018158, "INCLINATION": 74.0297, "RA_OF_ASC_NODE": 250.9133, "ARG_OF_PERICENTER": 344.6887, "MEAN_ANOMALY": 200.7795, "EPHEMERIS_TYPE": 0, "CLASSIFICATION_TYPE": "U", "NORAD_CAT_ID": 35287, "ELEMENT_SET_NO": 999, "REV_AT_EPOCH": 87089, "BSTAR": 0.00012553, "MEAN_MOTION_DOT": 3.42e-06, "MEAN_MOTION_DDOT": 0}, "tle": {"line1": "1 35287U 93036AJR 25360.46615543  .00000342  00000+0  12553-3 0  9993", "line2": "2 35287  74.0297 250.9133 0018158 344.6887 200.7795 14.36387455870890"}}, "geometry": {"type": "Point", "coordinates": [64.2402474136337, 16.576799998413872]}}, {"type": "Feature", "properties": {"norad_id": 35288, "name": "COSMOS 2251 DEB", "group": "cosmos-2251-debris", "lat": 51.04697996847925, "lon": 7.592110448998675, "alt_km": 696.4702605777065, "timestamp": "2025-12-27T10:28:59.190161+00:00", "meta": {"OBJECT_NAME": "COSMOS 2251 DEB", "OBJECT_ID": "1993-036AJS", "EPOCH": "2025-12-23T06:18:10.717920", "MEAN_MOTION": 14.65565205, "ECCENTRICITY": 0.0039069, "INCLINATION": 73.9499, "RA_OF_ASC_NODE": 354.8064, "ARG_OF_PERICENTER": 226.8245, "MEAN_ANOMALY": 132.9657, "EPHEMERIS_TYPE": 0, "CLASSIFICATION_TYPE": "U", "NORAD_CAT_ID": 35288, "ELEMENT_SET_NO": 999, "REV_AT_EPOCH": 88032, "BSTAR": 0.0011220049, "MEAN_MOTION_DOT": 6.131e-05, "MEAN_MOTION_DDOT": 0}, "tle": {"line1": "1 35288U 93036AJS 25357.26262405  .00006131  00000+0  11220-2 0  9994", "line2": "2 35288  73.9499 354.8064 0039069 226.8245 132.9657 14.65565205880328"}}, "geometry": {"type": "Point", "coordinates": [7.592110448998675, 51.04697996847925]}}, {"type": "Feature", "properties": {"norad_id": 35290, "name": "COSMOS 2251 DEB", "group": "cosmos-2251-debris", "lat": 45.6234716550563, "lon": 47.45259674798772, "alt_km": 623.2031501058464, "timestamp": "2025-12-27T10:28:59.190171+00:00", "meta": {"OBJECT_NAME": "COSMOS 2251 DEB", "OBJECT_ID": "1993-036AJU", "EPOCH": "2025-12-24T09:17:55.218624", "MEAN_MOTION": 14.80672096, "ECCENTRICITY": 0.00012182, "INCLINATION": 74.005, "RA_OF_ASC_NODE": 36.4274, "ARG_OF_PERICENTER": 184.9871, "MEAN_ANOMALY": 175.1294, "EPHEMERIS_TYPE": 0, "CLASSIFICATION_TYPE": "U", "NORAD_CAT_ID": 35290, "ELEMENT_SET_NO": 999, "REV_AT_EPOCH": 88130, "BSTAR": 0.0018442179, "MEAN_MOTION_DOT": 0.00014174, "MEAN_MOTION_DDOT": 0}, "tle": {"line1": "1 35290U 93036AJU 25358.38744466  .00014174  00000+0  18442-2 0  9992", "line2": "2 35290  74.0050  36.4274 0001218 184.9871 175.1294 14.80672096881305"}}, "geometry": {"type": "Point", "coordinates": [47.45259674798772, 45.6234716550563]}}]}